ONEWEB-0128             
1 47274U 20100S   24260.62093836 -.00000043  00000+0 -15585-3 0  9993
2 47274  87.8886 117.8685 0001701  91.4221 268.7103 13.12441538180980
ONEWEB-0129             
1 47275U 20100T   24260.59985849  .00000465  00000+0  12559-2 0  9997
2 47275  87.8878 117.8337 0003336  76.5706 283.5795 13.12442865180913
ONEWEB-0130             
1 47276U 20100U   24260.62742620 -.00000289  00000+0 -84008-3 0  9995
2 47276  87.8878 117.8344 0001822  84.5338 275.5999 13.12441387180881
ONEWEB-0131             
1 47277U 20100V   24260.62418137 -.00000189  00000+0 -55948-3 0  9999
2 47277  87.8881 117.8527 0001684  86.2427 273.8894 13.12441801180924
ONEWEB-0132             
1 47278U 20100W   24260.65335573  .00000570  00000+0  15492-2 0  9996
2 47278  87.8861 117.8508 0001725  75.1754 284.9566 13.12454609180826
ONEWEB-0133             
1 47279U 20100X   24260.59337053  .00000457  00000+0  12357-2 0  9996
2 47279  87.8873 117.8540 0001684  84.6712 275.4609 13.12441496180978
ONEWEB-0134             
1 47280U 20100Y   24260.56255407 -.00000336  00000+0 -97003-3 0  9997
2 47280  87.8872 117.8466 0001896  88.9709 271.1637 13.12444892180948
ONEWEB-0135             
1 47281U 20100Z   24260.60958476  .00000345  00000+0  92253-3 0  9999
2 47281  87.8877 117.8592 0001874  97.6960 262.4381 13.12439941180977
